start=new Date('2022-03-11T00:00:00.000Z').valueOf();
sats=[{"MEAN_ANOMALY":"294.6914","COUNTRY_CODE":"US","FILE":"3353482","MEAN_MOTION":"15.06386384","TLE_LINE1":"1 45047U 20006D   22069.21600559  .00001260  00000-0  10354-3 0  9990","RCS_SIZE":"LARGE","MEAN_MOTION_DDOT":"0.0000000000000","PERIOD":"95.593","EPOCH":"2022-03-10T05:11:02.882976","REF_FRAME":"TEME","EPHEMERIS_TYPE":"0","NORAD_CAT_ID":"45047","APOAPSIS":"548.398","PERIAPSIS":"546.113","MEAN_ELEMENT_THEORY":"SGP4","RA_OF_ASC_NODE":"2.9444","LAUNCH_DATE":"2020-01-29","CLASSIFICATION_TYPE":"U","OBJECT_ID":"2020-006D","ARG_OF_PERICENTER":"65.4247","ECCENTRICITY":"0.00016500","OBJECT_NAME":"STARLINK-1131","SITE":"AFETR","GP_ID":"198396881","MEAN_MOTION_DOT":"0.00001260","OBJECT_TYPE":"PAYLOAD","CENTER_NAME":"EARTH","INCLINATION":"53.0564","ELEMENT_SET_NO":"999","TIME_SYSTEM":"UTC","BSTAR":"0.00010354000000","REV_AT_EPOCH":"11633","TLE_LINE2":"2 45047  53.0564   2.9444 0001650  65.4247 294.6914 15.06386384116331","SEMIMAJOR_AXIS":"6925.390","DECAY_DATE":null},{"PERIAPSIS":"546.066","EPHEMERIS_TYPE":"0","APOAPSIS":"548.357","NORAD_CAT_ID":"45048","REF_FRAME":"TEME","FILE":"3353482","MEAN_MOTION":"15.06400610","RCS_SIZE":"LARGE","MEAN_MOTION_DDOT":"0.0000000000000","PERIOD":"95.592","EPOCH":"2022-03-10T05:21:40.900320","TLE_LINE1":"1 45048U 20006E   22069.22339005  .00008418  00000-0  58334-3 0  9999","MEAN_ANOMALY":"286.4470","COUNTRY_CODE":"US","TLE_LINE2":"2 45048  53.0549   2.9001 0001654  73.6700 286.4470 15.06400610116338","DECAY_DATE":null,"SEMIMAJOR_AXIS":"6925.347","TIME_SYSTEM":"UTC","ELEMENT_SET_NO":"999","REV_AT_EPOCH":"11633","BSTAR":"0.00058334000000","CENTER_NAME":"EARTH","OBJECT_TYPE":"PAYLOAD","INCLINATION":"53.0549","MEAN_MOTION_DOT":"0.00008418","GP_ID":"198397129","SITE":"AFETR","ECCENTRICITY":"0.00016540","ARG_OF_PERICENTER":"73.6700","OBJECT_NAME":"STARLINK-1134","OBJECT_ID":"2020-006E","CLASSIFICATION_TYPE":"U","MEAN_ELEMENT_THEORY":"SGP4","LAUNCH_DATE":"2020-01-29","RA_OF_ASC_NODE":"2.9001"},{"SITE":"AFETR","GP_ID":"198395889","ARG_OF_PERICENTER":"77.2386","ECCENTRICITY":"0.00027570","OBJECT_NAME":"STARLINK-1135","CLASSIFICATION_TYPE":"U","OBJECT_ID":"2020-006F","MEAN_ELEMENT_THEORY":"SGP4","RA_OF_ASC_NODE":"2.8523","LAUNCH_DATE":"2020-01-29","TLE_LINE2":"2 45049  53.0557   2.8523 0002757  77.2386 282.8911 15.07123077116331","SEMIMAJOR_AXIS":"6923.133","DECAY_DATE":null,"ELEMENT_SET_NO":"999","TIME_SYSTEM":"UTC","BSTAR":"0.00103190000000","REV_AT_EPOCH":"11633","OBJECT_TYPE":"PAYLOAD","CENTER_NAME":"EARTH","INCLINATION":"53.0557","MEAN_MOTION_DOT":"0.00015425","FILE":"3353482","MEAN_MOTION":"15.07123077","TLE_LINE1":"1 45049U 20006F   22069.21921771  .00015425  00000-0  10319-2 0  9992","RCS_SIZE":"LARGE","EPOCH":"2022-03-10T05:15:40.410144","PERIOD":"95.546","MEAN_MOTION_DDOT":"0.0000000000000","MEAN_ANOMALY":"282.8911","COUNTRY_CODE":"US","PERIAPSIS":"543.090","EPHEMERIS_TYPE":"0","NORAD_CAT_ID":"45049","APOAPSIS":"546.907","REF_FRAME":"TEME"},{"TLE_LINE2":"2 45050  53.0545   2.5559 0001472  59.7225 300.3910 15.06393461116347","SEMIMAJOR_AXIS":"6925.369","DECAY_DATE":null,"ELEMENT_SET_NO":"999","TIME_SYSTEM":"UTC","BSTAR":"0.00023511000000","REV_AT_EPOCH":"11634","OBJECT_TYPE":"PAYLOAD","CENTER_NAME":"EARTH","INCLINATION":"53.0545","MEAN_MOTION_DOT":"0.00003222","SITE":"AFETR","GP_ID":"198396640","ARG_OF_PERICENTER":"59.7225","ECCENTRICITY":"0.00014720","OBJECT_NAME":"STARLINK-1140","CLASSIFICATION_TYPE":"U","OBJECT_ID":"2020-006G","MEAN_ELEMENT_THEORY":"SGP4","RA_OF_ASC_NODE":"2.5559","LAUNCH_DATE":"2020-01-29","PERIAPSIS":"546.214","EPHEMERIS_TYPE":"0","NORAD_CAT_ID":"45050","APOAPSIS":"548.253","REF_FRAME":"TEME","MEAN_MOTION":"15.06393461","FILE":"3353482","TLE_LINE1":"1 45050U 20006G   22069.30077801  .00003222  00000-0  23511-3 0  9991","RCS_SIZE":"LARGE","EPOCH":"2022-03-10T07:13:07.220064","PERIOD":"95.593","MEAN_MOTION_DDOT":"0.0000000000000","MEAN_ANOMALY":"300.3910","COUNTRY_CODE":"US"},{"REF_FRAME":"TEME","EPHEMERIS_TYPE":"0","NORAD_CAT_ID":"45051","APOAPSIS":"541.179","PERIAPSIS":"538.400","MEAN_ANOMALY":"258.6356","COUNTRY_CODE":"US","FILE":"3353482","MEAN_MOTION":"15.08825557","TLE_LINE1":"1 45051U 20006H   22069.52708479  .00013833  00000-0  88579-3 0  9992","MEAN_MOTION_DDOT":"0.0000000000000","RCS_SIZE":"LARGE","PERIOD":"95.438","EPOCH":"2022-03-10T12:39:00.125856","MEAN_MOTION_DOT":"0.00013833","OBJECT_TYPE":"PAYLOAD","CENTER_NAME":"EARTH","INCLINATION":"53.0531","ELEMENT_SET_NO":"999","TIME_SYSTEM":"UTC","BSTAR":"0.00088579000000","REV_AT_EPOCH":"11639","TLE_LINE2":"2 45051  53.0531   0.4569 0002009 101.4859 258.6356 15.08825557116398","SEMIMAJOR_AXIS":"6917.925","DECAY_DATE":null,"MEAN_ELEMENT_THEORY":"SGP4","RA_OF_ASC_NODE":"0.4569","LAUNCH_DATE":"2020-01-29","OBJECT_ID":"2020-006H","CLASSIFICATION_TYPE":"U","ARG_OF_PERICENTER":"101.4859","ECCENTRICITY":"0.00020090","OBJECT_NAME":"STARLINK-1141","SITE":"AFETR","GP_ID":"198397382"},{"GP_ID":"198397630","SITE":"AFETR","ECCENTRICITY":"0.00015000","ARG_OF_PERICENTER":"65.0064","OBJECT_NAME":"STARLINK-1148","OBJECT_ID":"2020-006J","CLASSIFICATION_TYPE":"U","MEAN_ELEMENT_THEORY":"SGP4","LAUNCH_DATE":"2020-01-29","RA_OF_ASC_NODE":"1.6293","TLE_LINE2":"2 45052  53.0554   1.6293 0001500  65.0064 295.1081 15.06382951116372","DECAY_DATE":null,"SEMIMAJOR_AXIS":"6925.401","TIME_SYSTEM":"UTC","ELEMENT_SET_NO":"999","REV_AT_EPOCH":"11637","BSTAR":"0.00020550000000","CENTER_NAME":"EARTH","OBJECT_TYPE":"PAYLOAD","INCLINATION":"53.0554","MEAN_MOTION_DOT":"0.00002779","FILE":"3353482","MEAN_MOTION":"15.06382951","MEAN_MOTION_DDOT":"0.0000000000000","RCS_SIZE":"LARGE","PERIOD":"95.593","EPOCH":"2022-03-10T12:10:22.371168","TLE_LINE1":"1 45052U 20006J   22069.50720337  .00002779  00000-0  20550-3 0  9990","MEAN_ANOMALY":"295.1081","COUNTRY_CODE":"US","PERIAPSIS":"546.227","EPHEMERIS_TYPE":"0","APOAPSIS":"548.305","NORAD_CAT_ID":"45052","REF_FRAME":"TEME"},{"COUNTRY_CODE":"US","MEAN_ANOMALY":"268.1425","TLE_LINE1":"1 45053U 20006K   22069.49653896  .00014479  00000-0  90842-3 0  9995","PERIOD":"95.393","RCS_SIZE":"LARGE","MEAN_MOTION_DDOT":"0.0000000000000","EPOCH":"2022-03-10T11:55:00.966144","MEAN_MOTION":"15.09536976","FILE":"3353482","REF_FRAME":"TEME","NORAD_CAT_ID":"45053","APOAPSIS":"538.221","EPHEMERIS_TYPE":"0","PERIAPSIS":"537.011","RA_OF_ASC_NODE":"357.5374","LAUNCH_DATE":"2020-01-29","MEAN_ELEMENT_THEORY":"SGP4","CLASSIFICATION_TYPE":"U","OBJECT_ID":"2020-006K","OBJECT_NAME":"STARLINK-1155","ARG_OF_PERICENTER":"91.9664","ECCENTRICITY":"0.00008750","SITE":"AFETR","GP_ID":"198396390","MEAN_MOTION_DOT":"0.00014479","INCLINATION":"53.0026","OBJECT_TYPE":"PAYLOAD","CENTER_NAME":"EARTH","BSTAR":"0.00090842000000","REV_AT_EPOCH":"11640","ELEMENT_SET_NO":"999","TIME_SYSTEM":"UTC","SEMIMAJOR_AXIS":"6915.751","DECAY_DATE":null,"TLE_LINE2":"2 45053  53.0026 357.5374 0000875  91.9664 268.1425 15.09536976116405"},{"ARG_OF_PERICENTER":"57.7160","ECCENTRICITY":"0.00016040","OBJECT_NAME":"STARLINK-1156","SITE":"AFETR","GP_ID":"198396140","MEAN_ELEMENT_THEORY":"SGP4","RA_OF_ASC_NODE":"1.6643","LAUNCH_DATE":"2020-01-29","CLASSIFICATION_TYPE":"U","OBJECT_ID":"2020-006L","ELEMENT_SET_NO":"999","TIME_SYSTEM":"UTC","BSTAR":"0.00023821000000","REV_AT_EPOCH":"11637","TLE_LINE2":"2 45054  53.0557   1.6643 0001604  57.7160 302.3984 15.06391365116378","SEMIMAJOR_AXIS":"6925.375","DECAY_DATE":null,"MEAN_MOTION_DOT":"0.00003268","OBJECT_TYPE":"PAYLOAD","CENTER_NAME":"EARTH","INCLINATION":"53.0557","MEAN_ANOMALY":"302.3984","COUNTRY_CODE":"US","FILE":"3353482","MEAN_MOTION":"15.06391365","TLE_LINE1":"1 45054U 20006L   22069.50350963  .00003268  00000-0  23821-3 0  9994","MEAN_MOTION_DDOT":"0.0000000000000","RCS_SIZE":"LARGE","PERIOD":"95.593","EPOCH":"2022-03-10T12:05:03.232032","PERIAPSIS":"546.129","REF_FRAME":"TEME","EPHEMERIS_TYPE":"0","NORAD_CAT_ID":"45054","APOAPSIS":"548.351"},{"INCLINATION":"53.0559","OBJECT_TYPE":"PAYLOAD","CENTER_NAME":"EARTH","MEAN_MOTION_DOT":"0.00000565","SEMIMAJOR_AXIS":"6925.410","DECAY_DATE":null,"TLE_LINE2":"2 45057  53.0559   1.5706 0001601  70.9594 289.1568 15.06380020116384","BSTAR":"0.00005683400000","REV_AT_EPOCH":"11638","ELEMENT_SET_NO":"999","TIME_SYSTEM":"UTC","CLASSIFICATION_TYPE":"U","OBJECT_ID":"2020-006P","RA_OF_ASC_NODE":"1.5706","LAUNCH_DATE":"2020-01-29","MEAN_ELEMENT_THEORY":"SGP4","SITE":"AFETR","GP_ID":"198396882","OBJECT_NAME":"STARLINK-1159","ARG_OF_PERICENTER":"70.9594","ECCENTRICITY":"0.00016010","NORAD_CAT_ID":"45057","APOAPSIS":"548.384","EPHEMERIS_TYPE":"0","REF_FRAME":"TEME","PERIAPSIS":"546.166","TLE_LINE1":"1 45057U 20006P   22069.51826088  .00000565  00000-0  56834-4 0  9992","RCS_SIZE":"LARGE","MEAN_MOTION_DDOT":"0.0000000000000","PERIOD":"95.593","EPOCH":"2022-03-10T12:26:17.740032","FILE":"3353482","MEAN_MOTION":"15.06380020","COUNTRY_CODE":"US","MEAN_ANOMALY":"289.1568"},{"MEAN_MOTION_DOT":"0.00003269","OBJECT_TYPE":"PAYLOAD","CENTER_NAME":"EARTH","INCLINATION":"53.0539","ELEMENT_SET_NO":"999","TIME_SYSTEM":"UTC","BSTAR":"0.00023829000000","REV_AT_EPOCH":"11638","TLE_LINE2":"2 45058  53.0539   1.6148 0001442  61.4920 298.6214 15.06393894116381","SEMIMAJOR_AXIS":"6925.367","DECAY_DATE":null,"MEAN_ELEMENT_THEORY":"SGP4","RA_OF_ASC_NODE":"1.6148","LAUNCH_DATE":"2020-01-29","CLASSIFICATION_TYPE":"U","OBJECT_ID":"2020-006Q","ARG_OF_PERICENTER":"61.4920","ECCENTRICITY":"0.00014420","OBJECT_NAME":"STARLINK-1162","SITE":"AFETR","GP_ID":"198397130","REF_FRAME":"TEME","EPHEMERIS_TYPE":"0","NORAD_CAT_ID":"45058","APOAPSIS":"548.231","PERIAPSIS":"546.234","MEAN_ANOMALY":"298.6214","COUNTRY_CODE":"US","FILE":"3353482","MEAN_MOTION":"15.06393894","TLE_LINE1":"1 45058U 20006Q   22069.51088070  .00003269  00000-0  23829-3 0  9995","RCS_SIZE":"LARGE","EPOCH":"2022-03-10T12:15:40.092480","PERIOD":"95.593","MEAN_MOTION_DDOT":"0.0000000000000"}];
